STARLINK-5120           
1 53982U 22125U   26062.80506521  .00000305  00000+0  37262-4 0  9993
2 53982  53.2177 240.5757 0001390  94.3551 265.7600 15.08841299188565
STARLINK-5142           
1 53984U 22125W   26063.47852095  .00000665  00000+0  59904-4 0  9995
2 53984  53.2164 237.6704 0001723  89.6750 270.4439 15.08837547188676
STARLINK-5147           
1 53985U 22125X   26063.48588797  .00000798  00000+0  68250-4 0  9993
2 53985  53.2169 237.7162 0001313  85.6636 274.4506 15.08839844188676
STARLINK-5119           
1 53986U 22125Y   26062.83540142  .00002116  00000+0  15107-3 0  9992
2 53986  53.2169 230.0828 0001565  82.3213 277.7957 15.08830031188716
STARLINK-5113           
1 53988U 22125AA  26062.81243473  .00001621  00000+0  11987-3 0  9991
2 53988  53.2172 240.6218 0001279  87.2129 272.9010 15.08843746188561
STARLINK-5118           
1 53991U 22125AD  26063.46101173  .00000275  00000+0  35340-4 0  9991
2 53991  53.2169 227.5261 0001241  89.9885 270.1250 15.08841579188805
STARLINK-5108           
1 53992U 22125AE  26062.80138381  .00001233  00000+0  95538-4 0  9990
2 53992  53.2163 240.5508 0001384  95.2192 264.8958 15.08843822188569
STARLINK-5121           
1 53993U 22125AF  26062.71164062  .00000629  00000+0  57587-4 0  9996
2 53993  53.2166 235.7127 0001238 117.1542 242.9577 15.08840641188624
STARLINK-5125           
1 53994U 22125AG  26062.72408868  .00000251  00000+0  33864-4 0  9996
2 53994  53.2174 240.7792 0001444  98.1231 261.9925 15.08836488188565
STARLINK-5097           
1 53995U 22125AH  26062.79769794  .00000114  00000+0  25233-4 0  9991
2 53995  53.2173 240.5327 0001319  91.4357 268.6787 15.08836950188567
STARLINK-5131           
1 53996U 22125AJ  26063.58152400 -.00001022  00000+0 -46111-4 0  9999
2 53996  53.2160 236.8898 0001338  99.9905 260.1238 15.08837553188690
STARLINK-5130           
1 53997U 22125AK  26063.48313096 -.00000200  00000+0  55274-5 0  9996
2 53997  53.2168 227.7205 0001675  98.5922 261.5260 15.08838506188811
STARLINK-5128           
1 53998U 22125AL  26063.50788808  .00001776  00000+0  12961-3 0  9999
2 53998  53.2171 237.1382 0001134 102.3902 257.7218 15.08852097188685
STARLINK-5079           
1 53999U 22125AM  26063.45641474  .00002427  00000+0  17060-3 0  9990
2 53999  53.2174 237.5317 0001230  95.1809 264.9324 15.08827970188672
STARLINK-5088           
1 54000U 22125AN  26063.47944471  .00000444  00000+0  46015-4 0  9999
2 54000  53.2173 227.7016 0001424  85.6316 274.4839 15.08837857188812
STARLINK-5109           
1 54002U 22125AQ  26063.50148257 -.00002535  00000+0 -14122-3 0  9991
2 54002  53.2168 227.1476 0002272  93.0267 267.0985 15.08838869188827
