[{"OBJECT_NAME":"STARLINK-5120","OBJECT_ID":"2022-125U","EPOCH":"2026-03-03T19:19:17.634144","MEAN_MOTION":15.08841299,"ECCENTRICITY":0.000139,"INCLINATION":53.2177,"RA_OF_ASC_NODE":240.5757,"ARG_OF_PERICENTER":94.3551,"MEAN_ANOMALY":265.76,"EPHEMERIS_TYPE":0,"CLASSIFICATION_TYPE":"U","NORAD_CAT_ID":53982,"ELEMENT_SET_NO":999,"REV_AT_EPOCH":18856,"BSTAR":3.7262e-5,"MEAN_MOTION_DOT":3.05e-6,"MEAN_MOTION_DDOT":0},{"OBJECT_NAME":"STARLINK-5142","OBJECT_ID":"2022-125W","EPOCH":"2026-03-04T11:29:04.210080","MEAN_MOTION":15.08837547,"ECCENTRICITY":0.00017232,"INCLINATION":53.2164,"RA_OF_ASC_NODE":237.6704,"ARG_OF_PERICENTER":89.675,"MEAN_ANOMALY":270.4439,"EPHEMERIS_TYPE":0,"CLASSIFICATION_TYPE":"U","NORAD_CAT_ID":53984,"ELEMENT_SET_NO":999,"REV_AT_EPOCH":18867,"BSTAR":5.9903711e-5,"MEAN_MOTION_DOT":6.65e-6,"MEAN_MOTION_DDOT":0},{"OBJECT_NAME":"STARLINK-5147","OBJECT_ID":"2022-125X","EPOCH":"2026-03-04T11:39:40.720608","MEAN_MOTION":15.08839844,"ECCENTRICITY":0.00013135,"INCLINATION":53.2169,"RA_OF_ASC_NODE":237.7162,"ARG_OF_PERICENTER":85.6636,"MEAN_ANOMALY":274.4506,"EPHEMERIS_TYPE":0,"CLASSIFICATION_TYPE":"U","NORAD_CAT_ID":53985,"ELEMENT_SET_NO":999,"REV_AT_EPOCH":18867,"BSTAR":6.8250077e-5,"MEAN_MOTION_DOT":7.98e-6,"MEAN_MOTION_DDOT":0},{"OBJECT_NAME":"STARLINK-5119","OBJECT_ID":"2022-125Y","EPOCH":"2026-03-03T20:02:58.682688","MEAN_MOTION":15.08830031,"ECCENTRICITY":0.0001565,"INCLINATION":53.2169,"RA_OF_ASC_NODE":230.0828,"ARG_OF_PERICENTER":82.3213,"MEAN_ANOMALY":277.7957,"EPHEMERIS_TYPE":0,"CLASSIFICATION_TYPE":"U","NORAD_CAT_ID":53986,"ELEMENT_SET_NO":999,"REV_AT_EPOCH":18871,"BSTAR":0.00015107,"MEAN_MOTION_DOT":2.116e-5,"MEAN_MOTION_DDOT":0},{"OBJECT_NAME":"STARLINK-5113","OBJECT_ID":"2022-125AA","EPOCH":"2026-03-03T19:29:54.360672","MEAN_MOTION":15.08843746,"ECCENTRICITY":0.0001279,"INCLINATION":53.2172,"RA_OF_ASC_NODE":240.6218,"ARG_OF_PERICENTER":87.2129,"MEAN_ANOMALY":272.901,"EPHEMERIS_TYPE":0,"CLASSIFICATION_TYPE":"U","NORAD_CAT_ID":53988,"ELEMENT_SET_NO":999,"REV_AT_EPOCH":18856,"BSTAR":0.00011987,"MEAN_MOTION_DOT":1.621e-5,"MEAN_MOTION_DDOT":0},{"OBJECT_NAME":"STARLINK-5118","OBJECT_ID":"2022-125AD","EPOCH":"2026-03-04T11:03:51.413472","MEAN_MOTION":15.08841579,"ECCENTRICITY":0.00012411,"INCLINATION":53.2169,"RA_OF_ASC_NODE":227.5261,"ARG_OF_PERICENTER":89.9885,"MEAN_ANOMALY":270.125,"EPHEMERIS_TYPE":0,"CLASSIFICATION_TYPE":"U","NORAD_CAT_ID":53991,"ELEMENT_SET_NO":999,"REV_AT_EPOCH":18880,"BSTAR":3.5339516e-5,"MEAN_MOTION_DOT":2.75e-6,"MEAN_MOTION_DDOT":0},{"OBJECT_NAME":"STARLINK-5108","OBJECT_ID":"2022-125AE","EPOCH":"2026-03-03T19:13:59.561184","MEAN_MOTION":15.08843822,"ECCENTRICITY":0.0001384,"INCLINATION":53.2163,"RA_OF_ASC_NODE":240.5508,"ARG_OF_PERICENTER":95.2192,"MEAN_ANOMALY":264.8958,"EPHEMERIS_TYPE":0,"CLASSIFICATION_TYPE":"U","NORAD_CAT_ID":53992,"ELEMENT_SET_NO":999,"REV_AT_EPOCH":18856,"BSTAR":9.5538e-5,"MEAN_MOTION_DOT":1.233e-5,"MEAN_MOTION_DDOT":0},{"OBJECT_NAME":"STARLINK-5121","OBJECT_ID":"2022-125AF","EPOCH":"2026-03-03T17:04:45.749568","MEAN_MOTION":15.08840641,"ECCENTRICITY":0.00012388,"INCLINATION":53.2166,"RA_OF_ASC_NODE":235.7127,"ARG_OF_PERICENTER":117.1542,"MEAN_ANOMALY":242.9577,"EPHEMERIS_TYPE":0,"CLASSIFICATION_TYPE":"U","NORAD_CAT_ID":53993,"ELEMENT_SET_NO":999,"REV_AT_EPOCH":18862,"BSTAR":5.7586519e-5,"MEAN_MOTION_DOT":6.29e-6,"MEAN_MOTION_DDOT":0},{"OBJECT_NAME":"STARLINK-5125","OBJECT_ID":"2022-125AG","EPOCH":"2026-03-03T17:22:41.261952","MEAN_MOTION":15.08836488,"ECCENTRICITY":0.00014441,"INCLINATION":53.2174,"RA_OF_ASC_NODE":240.7792,"ARG_OF_PERICENTER":98.1231,"MEAN_ANOMALY":261.9925,"EPHEMERIS_TYPE":0,"CLASSIFICATION_TYPE":"U","NORAD_CAT_ID":53994,"ELEMENT_SET_NO":999,"REV_AT_EPOCH":18856,"BSTAR":3.3863704e-5,"MEAN_MOTION_DOT":2.51e-6,"MEAN_MOTION_DDOT":0},{"OBJECT_NAME":"STARLINK-5097","OBJECT_ID":"2022-125AH","EPOCH":"2026-03-03T19:08:41.102016","MEAN_MOTION":15.0883695,"ECCENTRICITY":0.0001319,"INCLINATION":53.2173,"RA_OF_ASC_NODE":240.5327,"ARG_OF_PERICENTER":91.4357,"MEAN_ANOMALY":268.6787,"EPHEMERIS_TYPE":0,"CLASSIFICATION_TYPE":"U","NORAD_CAT_ID":53995,"ELEMENT_SET_NO":999,"REV_AT_EPOCH":18856,"BSTAR":2.5233e-5,"MEAN_MOTION_DOT":1.14e-6,"MEAN_MOTION_DDOT":0},{"OBJECT_NAME":"STARLINK-5131","OBJECT_ID":"2022-125AJ","EPOCH":"2026-03-04T13:57:23.673600","MEAN_MOTION":15.08837553,"ECCENTRICITY":0.00013384,"INCLINATION":53.216,"RA_OF_ASC_NODE":236.8898,"ARG_OF_PERICENTER":99.9905,"MEAN_ANOMALY":260.1238,"EPHEMERIS_TYPE":0,"CLASSIFICATION_TYPE":"U","NORAD_CAT_ID":53996,"ELEMENT_SET_NO":999,"REV_AT_EPOCH":18869,"BSTAR":-4.6111094e-5,"MEAN_MOTION_DOT":-1.022e-5,"MEAN_MOTION_DDOT":0},{"OBJECT_NAME":"STARLINK-5130","OBJECT_ID":"2022-125AK","EPOCH":"2026-03-04T11:35:42.514944","MEAN_MOTION":15.08838506,"ECCENTRICITY":0.00016754,"INCLINATION":53.2168,"RA_OF_ASC_NODE":227.7205,"ARG_OF_PERICENTER":98.5922,"MEAN_ANOMALY":261.526,"EPHEMERIS_TYPE":0,"CLASSIFICATION_TYPE":"U","NORAD_CAT_ID":53997,"ELEMENT_SET_NO":999,"REV_AT_EPOCH":18881,"BSTAR":5.527428e-6,"MEAN_MOTION_DOT":-2.0e-6,"MEAN_MOTION_DDOT":0},{"OBJECT_NAME":"STARLINK-5128","OBJECT_ID":"2022-125AL","EPOCH":"2026-03-04T12:11:21.530112","MEAN_MOTION":15.08852097,"ECCENTRICITY":0.00011343,"INCLINATION":53.2171,"RA_OF_ASC_NODE":237.1382,"ARG_OF_PERICENTER":102.3902,"MEAN_ANOMALY":257.7218,"EPHEMERIS_TYPE":0,"CLASSIFICATION_TYPE":"U","NORAD_CAT_ID":53998,"ELEMENT_SET_NO":999,"REV_AT_EPOCH":18868,"BSTAR":0.0001296081,"MEAN_MOTION_DOT":1.776e-5,"MEAN_MOTION_DDOT":0},{"OBJECT_NAME":"STARLINK-5079","OBJECT_ID":"2022-125AM","EPOCH":"2026-03-04T10:57:14.233536","MEAN_MOTION":15.0882797,"ECCENTRICITY":0.00012301,"INCLINATION":53.2174,"RA_OF_ASC_NODE":237.5317,"ARG_OF_PERICENTER":95.1809,"MEAN_ANOMALY":264.9324,"EPHEMERIS_TYPE":0,"CLASSIFICATION_TYPE":"U","NORAD_CAT_ID":53999,"ELEMENT_SET_NO":999,"REV_AT_EPOCH":18867,"BSTAR":0.00017059805,"MEAN_MOTION_DOT":2.427e-5,"MEAN_MOTION_DDOT":0},{"OBJECT_NAME":"STARLINK-5088","OBJECT_ID":"2022-125AN","EPOCH":"2026-03-04T11:30:24.022944","MEAN_MOTION":15.08837857,"ECCENTRICITY":0.00014246,"INCLINATION":53.2173,"RA_OF_ASC_NODE":227.7016,"ARG_OF_PERICENTER":85.6316,"MEAN_ANOMALY":274.4839,"EPHEMERIS_TYPE":0,"CLASSIFICATION_TYPE":"U","NORAD_CAT_ID":54000,"ELEMENT_SET_NO":999,"REV_AT_EPOCH":18881,"BSTAR":4.6014913e-5,"MEAN_MOTION_DOT":4.44e-6,"MEAN_MOTION_DDOT":0},{"OBJECT_NAME":"STARLINK-5109","OBJECT_ID":"2022-125AQ","EPOCH":"2026-03-04T12:02:08.094048","MEAN_MOTION":15.08838869,"ECCENTRICITY":0.00022721,"INCLINATION":53.2168,"RA_OF_ASC_NODE":227.1476,"ARG_OF_PERICENTER":93.0267,"MEAN_ANOMALY":267.0985,"EPHEMERIS_TYPE":0,"CLASSIFICATION_TYPE":"U","NORAD_CAT_ID":54002,"ELEMENT_SET_NO":999,"REV_AT_EPOCH":18882,"BSTAR":-0.0001412234,"MEAN_MOTION_DOT":-2.535e-5,"MEAN_MOTION_DDOT":0}]
